ASTROCAST-0403          
1 55111U 23001DG  26068.82333059  .00013959  00000+0  51317-3 0  9990
2 55111  97.5604 161.3228 0004771 338.0704  22.0330 15.28004949129377
STARLINK-32665          
1 62203U 24229M   26068.57456917  .00026498  00000+0  96895-3 0  9996
2 62203  42.9995 271.3734 0001599 246.8294 113.2389 15.27580721 70540
